2022-164A               
1 54588U 22164A   22365.47738838  .00000633  00000+0  19561-3 0  9997
2 54588  98.3545  32.4441 0009286 199.0787 161.0067 14.44556293  3535
KZ-11 R/B               
1 54589U 22164B   22365.51563101  .00020841  23304-5  23435-3 0  9998
2 54589  98.3672  35.1070 0377794  23.3306 338.4566 15.08321587  3691
2022-165A               
1 54640U 22165A   22365.51699770  .00000552  00000+0  13047-3 0  9996
2 54640  98.1194 303.4963 0001121  94.5868 265.5453 14.57775466  3326
2022-165B               
1 54641U 22165B   22365.48661011  .00000565  00000+0  11275-3 0  9995
2 54641  98.0308 303.3453 0033634 229.1031 130.7263 14.65373120  3320
ONEWEB-0527             
1 54642U 22166A   22365.58334491 -.01238256  00000+0 -14629+0 0  9992
2 54642  86.5407 148.3405 0009446 153.9893 153.0587 14.87936641  1301
ONEWEB-0528             
1 54643U 22166B   22365.58334491 -.01241432  00000+0 -14741+0 0  9998
2 54643  86.5430 148.3448 0009409 154.4427 150.3602 14.87740497  1303
ONEWEB-0539             
1 54644U 22166C   22365.25415652 -.00200837  00000+0 -21549-1 0  9991
2 54644  86.5175 148.4789 0010894 138.1857 222.0204 14.89809184  3640
ONEWEB-0540             
1 54645U 22166D   22365.58334491 -.01244571  00000+0 -14953+0 0  9992
2 54645  86.5415 148.3370 0009180 157.0302 136.9763 14.87275383  1304
ONEWEB-0542             
1 54646U 22166E   22365.43980403  .00003662  00000+0  35422-3 0  9996
2 54646  86.5176 148.3834 0014043 161.3392 198.8354 14.92429587  3651
ONEWEB-0545             
1 54647U 22166F   22365.66667824 -.01200113  00000+0 -14259+0 0  9995
2 54647  86.5399 148.2994 0009138 155.2046 232.0402 14.87612653  4133
ONEWEB-0580             
1 54648U 22166G   22365.44391071 -.00020649  00000+0 -20466-2 0  9993
2 54648  86.5167 148.3839 0013623 160.2170 199.9589 14.91987631  3653
ONEWEB-0582             
1 54649U 22166H   22365.45164650 -.00242414  00000+0 -25600-1 0  9996
2 54649  86.5191 148.3855 0009822 153.0416 207.1323 14.90692544  3651
ONEWEB-0583             
1 54650U 22166J   22365.44919894 -.00191469  00000+0 -19881-1 0  9992
2 54650  86.5174 148.3881 0009830 154.2272 205.9447 14.91081431  3656
ONEWEB-0584             
1 54651U 22166K   22365.58460671 -.00246191  00000+0 -25966-1 0  9996
2 54651  86.5181 148.3259 0013128 155.2413 204.9447 14.90729037  3678
ONEWEB-0585             
1 54652U 22166L   22365.66667824 -.01207408  00000+0 -14068+0 0  9993
2 54652  86.5396 148.2998 0010515 151.4117 263.0071 14.88404845  4137
ONEWEB-0586             
1 54653U 22166M   22365.58334491 -.01246906  00000+0 -15108+0 0  9998
2 54653  86.5465 148.3519 0008783 161.0099 119.4230 14.86943664  1307
ONEWEB-0587             
1 54654U 22166N   22365.45277200 -.00220061  00000+0 -23305-1 0  9992
2 54654  86.5223 148.3960 0011682 152.8761 207.3079 14.90434693  3656
ONEWEB-0589             
1 54655U 22166P   22365.44057497  .00003154  00000+0  30505-3 0  9998
2 54655  86.5167 148.3828 0013988 161.3206 198.8538 14.92375202  3653
ONEWEB-0590             
1 54656U 22166Q   22365.44178838  .00001533  00000+0  14716-3 0  9997
2 54656  86.5165 148.3821 0013664 160.6432 199.5318 14.92291363  3658
ONEWEB-0591             
1 54657U 22166R   22365.44232867 -.00047832  00000+0 -47426-2 0  9998
2 54657  86.5193 148.3880 0013218 160.0937 200.0809 14.92097397  3658
ONEWEB-0592             
1 54658U 22166S   22365.58334491 -.00900470  00000+0 -14908+0 0  9992
2 54658  86.4509 148.3415 0008485 160.0011 203.6833 14.73378722  1305
ONEWEB-0593             
1 54659U 22166T   22365.45130028 -.00268846  00000+0 -28552-1 0  9995
2 54659  86.5223 148.3947 0012228 154.5764 205.6067 14.90590442  3658
ONEWEB-0594             
1 54660U 22166U   22365.44562662 -.00113159  00000+0 -11490-1 0  9998
2 54660  86.5175 148.3868 0013205 157.5038 202.6771 14.91502470  3655
ONEWEB-0595             
1 54661U 22166V   22365.45083330 -.00136715  00000+0 -14117-1 0  9992
2 54661  86.5187 148.3940 0008249 154.5459 205.6176 14.91008176  3652
ONEWEB-0596             
1 54662U 22166W   22365.66667824 -.01221551  00000+0 -14232+0 0  9992
2 54662  86.5387 148.2940 0010845 152.1223 269.8810 14.88439166  4136
ONEWEB-0597             
1 54663U 22166X   22365.44302727  .00004679  00000+0  45590-3 0  9999
2 54663  86.5159 148.3822 0013612 158.5606 201.6195 14.92210820  3659
ONEWEB-0600             
1 54664U 22166Y   22365.44081053  .00003491  00000+0  33815-3 0  9994
2 54664  86.5164 148.3826 0013847 161.1755 198.9988 14.92363307  3652
ONEWEB-0601             
1 54665U 22166Z   22365.44334829 -.00048656  00000+0 -48335-2 0  9993
2 54665  86.5196 148.3880 0012519 158.9405 201.2341 14.92032576  3651
ONEWEB-0602             
1 54666U 22166AA  22365.17582892 -.00012034  00000+0 -11901-2 0  9999
2 54666  86.5188 148.5062 0013198 159.2692 200.9074 14.92073743  3619
ONEWEB-0603             
1 54667U 22166AB  22365.58334491 -.00833248  00000+0 -14646+0 0  9999
2 54667  86.5577 148.4270 0009111 160.1927 147.2530 14.70552601  1309
ONEWEB-0604             
1 54668U 22166AC  22365.66667824 -.00867056  00000+0 -14097+0 0  9992
2 54668  86.4522 148.3118 0008563 157.5066 318.0167 14.74047885  4127
ONEWEB-0605             
1 54669U 22166AD  22365.66667824 -.00850355  00000+0 -15086+0 0  9996
2 54669  86.5697 148.4000 0008365 162.4208 208.9787 14.70212100  4121
ONEWEB-0606             
1 54670U 22166AE  22365.66667824 -.00856031  00000+0 -13655+0 0  9995
2 54670  86.4572 148.3102 0008849 155.8130 347.0431 14.74827099  4127
ONEWEB-0607             
1 54671U 22166AF  22365.66667824 -.00866050  00000+0 -13679+0 0  9994
2 54671  86.5814 148.3660 0009010 156.7322  13.8888 14.75281384  4127
ONEWEB-0608             
1 54672U 22166AG  22365.58334491 -.00909410  00000+0 -13285+0 0  9998
2 54672  86.6004 148.3977 0013190 155.8280  42.9801 14.78687319  1304
ONEWEB-0610             
1 54673U 22166AH  22365.58334491 -.00839142  00000+0 -12911+0 0  9998
2 54673  86.4598 148.3368 0009565 155.7889 290.2818 14.76307301  1304
ONEWEB-0611             
1 54674U 22166AJ  22365.58334491 -.00887256  00000+0 -13482+0 0  9992
2 54674  86.4656 148.3363 0011811 152.5522 355.7093 14.76968353  1303
ONEWEB-0612             
1 54675U 22166AK  22365.58334491 -.00904066  00000+0 -14916+0 0  9995
2 54675  86.4291 148.3492 0008241 160.6613 216.6245 14.73541557  1300
ONEWEB-0615             
1 54676U 22166AL  22365.66667824 -.00845071  00000+0 -13052+0 0  9994
2 54676  86.4626 148.3027 0010881 151.4992  49.8449 14.76149669  4124
ONEWEB-0655             
1 54677U 22166AM  22365.58334491 -.00882346  00000+0 -13537+0 0  9991
2 54677  86.4564 148.3293 0010519 153.5448 323.7484 14.76558658  1300
ONEWEB-0659             
1 54678U 22166AN  22365.45312988 -.00366288  00000+0 -40004-1 0  9998
2 54678  86.5183 148.3879 0013523 150.8647 209.3337 14.90002921  3657
ONEWEB-0685             
1 54679U 22166AP  22365.66667824 -.00812017  00000+0 -13263+0 0  9995
2 54679  86.4550 148.3159 0008411 160.5491 284.5815 14.73670042  4126
ONEWEB-0712             
1 54680U 22166AQ  22365.44401609  .00056160  00000+0  54317-2 0  9995
2 54680  86.5178 148.3872 0013418 165.8288 194.3320 14.92450061  3656
ONEWEB-0714             
1 54681U 22166AR  22365.44114221  .00003680  00000+0  35681-3 0  9990
2 54681  86.5188 148.3861 0013756 160.6006 199.5748 14.92340374  3658
2022-167A               
1 54682U 22167A   22365.61121819  .00009930  00000+0  62987-3 0  9995
2 54682  97.5354 140.2073 0014179 185.0857 231.3719 15.09021244  3370
2022-167B               
1 54683U 22167B   22365.65089876  .00043350  00000+0  47981-3 0  9997
2 54683  97.5873 141.5527 0200698 244.9557 113.0942 15.42025719  3428
CAS-5A (FO-118)         
1 54684U 22167C   22365.61798023  .00007627  00000+0  48448-3 0  9991
2 54684  97.5382 140.2242 0014425 187.1267 272.3743 15.09048994  3365
2022-167D               
1 54685U 22167D   22365.65877404  .00005459  00000+0  34296-3 0  9994
2 54685  97.5432 140.2986 0013470 199.4201 170.0037 15.09598415  3379
2022-167E               
1 54686U 22167E   22365.60890334  .00005380  00000+0  33809-3 0  9999
2 54686  97.5390 140.2375 0013146 199.8479 258.4255 15.09593022  3367
2022-167F               
1 54687U 22167F   22365.65815336  .00009192  00000+0  57218-3 0  9999
2 54687  97.5377 140.2858 0013776 200.4338 171.7446 15.09739209  3370
2022-167G               
1 54688U 22167G   22365.65647631  .00009405  00000+0  58339-3 0  9993
2 54688  97.5351 140.2794 0013980 201.0777 169.6626 15.09857698  3372
2022-167H               
1 54689U 22167H   22365.65721192  .00005467  00000+0  34224-3 0  9990
2 54689  97.5452 140.3073 0014203 200.9297 169.7922 15.09719201  3377
2022-167J               
1 54690U 22167J   22365.65512359  .00005725  00000+0  35663-3 0  9990
2 54690  97.5331 140.2765 0014625 203.1551 168.2692 15.09872359  3370
2022-167K               
1 54691U 22167K   22365.65616237  .00009374  00000+0  58206-3 0  9993
2 54691  97.5404 140.2946 0014746 200.8428 170.1899 15.09813491  3377
2022-167L               
1 54692U 22167L   22365.65487866  .00005695  00000+0  35462-3 0  9999
2 54692  97.5444 140.3069 0015285 202.3760 168.3130 15.09878972  3376
2022-167M               
1 54693U 22167M   22365.54702757  .00011029  00000+0  69817-3 0  9996
2 54693  97.5411 140.1604 0014536 185.4555 244.2195 15.09063537  3328
2022-167N               
1 54694U 22167N   22365.65340824  .00005840  00000+0  36248-3 0  9998
2 54694  97.5353 140.2845 0015370 203.8275 167.5723 15.09989778  3376
2022-167P               
1 54695U 22167P   22365.65332888  .00005835  00000+0  36208-3 0  9990
2 54695  97.5396 140.2965 0015852 203.4008 167.7454 15.09991542  3377
FALCON 9 R/B            
1 54698U 22168C   22345.32368031  .00002049 -64822-5  00000+0 0  9995
2 54698  29.0000  41.2312 0098300  59.8200  27.0300 16.15592824    07
